{
  "type": "FeatureCollection",
  "features": [
    {
      "type": "Feature",
      "properties": {
        "norad_id": 35835,
        "name": "COSMOS 2251 DEB",
        "group": "cosmos-2251-debris",
        "lat": -65.22608328678798,
        "lon": -122.11200710036333,
        "alt_km": 1092.2896921769307,
        "timestamp": "2025-12-08T03:50:07.392816+00:00",
        "meta_object_name": "COSMOS 2251 DEB",
        "meta_object_id": "1993-036ATH",
        "meta_epoch": "2025-12-04T13:22:03.090144",
        "meta_mean_motion": 13.82821616,
        "meta_eccentricity": 0.0289764,
        "meta_inclination": 74.0638,
        "meta_ra_of_asc_node": 282.192,
        "meta_arg_of_pericenter": 65.7075,
        "meta_mean_anomaly": 297.4021,
        "meta_ephemeris_type": 0,
        "meta_classification_type": "U",
        "meta_norad_cat_id": 35835,
        "meta_element_set_no": 999,
        "meta_rev_at_epoch": 61586,
        "meta_bstar": 0.0025294,
        "meta_mean_motion_dot": 3.783e-05,
        "meta_mean_motion_ddot": 0,
        "tle_line1": "1 35835U 93036ATH 25338.55698021  .00003783  00000+0  25294-2 0  9996",
        "tle_line2": "2 35835  74.0638 282.1920 0289764  65.7075 297.4021 13.82821616615863"
      },
      "geometry": {
        "type": "Point",
        "coordinates": [
          -122.11200710036333,
          -65.22608328678798
        ]
      }
    },
    {
      "type": "Feature",
      "properties": {
        "norad_id": 35836,
        "name": "COSMOS 2251 DEB",
        "group": "cosmos-2251-debris",
        "lat": 38.513022643711516,
        "lon": -11.341844713712995,
        "alt_km": 658.5916075755586,
        "timestamp": "2025-12-08T03:50:07.392826+00:00",
        "meta_object_name": "COSMOS 2251 DEB",
        "meta_object_id": "1993-036ATJ",
        "meta_epoch": "2025-12-06T23:26:57.206400",
        "meta_mean_motion": 14.70781503,
        "meta_eccentricity": 0.00247356,
        "meta_inclination": 74.0315,
        "meta_ra_of_asc_node": 184.1257,
        "meta_arg_of_pericenter": 243.4087,
        "meta_mean_anomaly": 116.455,
        "meta_ephemeris_type": 0,
        "meta_classification_type": "U",
        "meta_norad_cat_id": 35836,
        "meta_element_set_no": 999,
        "meta_rev_at_epoch": 63435,
        "meta_bstar": 0.0027206843,
        "meta_mean_motion_dot": 0.00016698,
        "meta_mean_motion_ddot": 0,
        "tle_line1": "1 35836U 93036ATJ 25340.97705100  .00016698  00000+0  27207-2 0  9998",
        "tle_line2": "2 35836  74.0315 184.1257 0024735 243.4087 116.4550 14.70781503634353"
      },
      "geometry": {
        "type": "Point",
        "coordinates": [
          -11.341844713712995,
          38.513022643711516
        ]
      }
    },
    {
      "type": "Feature",
      "properties": {
        "norad_id": 35837,
        "name": "COSMOS 2251 DEB",
        "group": "cosmos-2251-debris",
        "lat": 28.1831053000288,
        "lon": -135.7472991343883,
        "alt_km": 1101.8214500722943,
        "timestamp": "2025-12-08T03:50:07.392836+00:00",
        "meta_object_name": "COSMOS 2251 DEB",
        "meta_object_id": "1993-036ATK",
        "meta_epoch": "2025-12-07T01:37:05.257344",
        "meta_mean_motion": 13.63416262,
        "meta_eccentricity": 0.04220726,
        "meta_inclination": 73.7213,
        "meta_ra_of_asc_node": 217.0621,
        "meta_arg_of_pericenter": 138.7435,
        "meta_mean_anomaly": 295.6845,
        "meta_ephemeris_type": 0,
        "meta_classification_type": "U",
        "meta_norad_cat_id": 35837,
        "meta_element_set_no": 999,
        "meta_rev_at_epoch": 57899,
        "meta_bstar": 0.0027822836,
        "meta_mean_motion_dot": 3.992e-05,
        "meta_mean_motion_ddot": 0,
        "tle_line1": "1 35837U 93036ATK 25341.06742196  .00003992  00000+0  27823-2 0  9993",
        "tle_line2": "2 35837  73.7213 217.0621 0422072 138.7435 295.6845 13.63416262578999"
      },
      "geometry": {
        "type": "Point",
        "coordinates": [
          -135.7472991343883,
          28.1831053000288
        ]
      }
    },
    {
      "type": "Feature",
      "properties": {
        "norad_id": 35839,
        "name": "COSMOS 2251 DEB",
        "group": "cosmos-2251-debris",
        "lat": -32.23365765151268,
        "lon": 163.74632347255485,
        "alt_km": 428.7119166897128,
        "timestamp": "2025-12-08T03:50:07.392845+00:00",
        "meta_object_name": "COSMOS 2251 DEB",
        "meta_object_id": "1993-036ATM",
        "meta_epoch": "2025-12-07T00:32:59.038656",
        "meta_mean_motion": 15.47806104,
        "meta_eccentricity": 0.00030094,
        "meta_inclination": 74.2095,
        "meta_ra_of_asc_node": 335.9269,
        "meta_arg_of_pericenter": 3.1347,
        "meta_mean_anomaly": 356.9884,
        "meta_ephemeris_type": 0,
        "meta_classification_type": "U",
        "meta_norad_cat_id": 35839,
        "meta_element_set_no": 999,
        "meta_rev_at_epoch": 88479,
        "meta_bstar": 0.0056231106,
        "meta_mean_motion_dot": 0.00303732,
        "meta_mean_motion_ddot": 0,
        "tle_line1": "1 35839U 93036ATM 25341.02290554  .00303732  00000+0  56231-2 0  9997",
        "tle_line2": "2 35839  74.2095 335.9269 0003009   3.1347 356.9884 15.47806104884799"
      },
      "geometry": {
        "type": "Point",
        "coordinates": [
          163.74632347255485,
          -32.23365765151268
        ]
      }
    },
    {
      "type": "Feature",
      "properties": {
        "norad_id": 35840,
        "name": "COSMOS 2251 DEB",
        "group": "cosmos-2251-debris",
        "lat": 49.85744623268159,
        "lon": -173.34538065393832,
        "alt_km": 681.81675615117,
        "timestamp": "2025-12-08T03:50:07.392855+00:00",
        "meta_object_name": "COSMOS 2251 DEB",
        "meta_object_id": "1993-036ATN",
        "meta_epoch": "2025-12-06T06:30:23.923008",
        "meta_mean_motion": 14.37729303,
        "meta_eccentricity": 0.01161221,
        "meta_inclination": 73.9295,
        "meta_ra_of_asc_node": 170.1667,
        "meta_arg_of_pericenter": 74.235,
        "meta_mean_anomaly": 287.1572,
        "meta_ephemeris_type": 0,
        "meta_classification_type": "U",
        "meta_norad_cat_id": 35840,
        "meta_element_set_no": 999,
        "meta_rev_at_epoch": 85198,
        "meta_bstar": 0.0028240718,
        "meta_mean_motion_dot": 9.169e-05,
        "meta_mean_motion_ddot": 0,
        "tle_line1": "1 35840U 93036ATN 25340.27111022  .00009169  00000+0  28241-2 0  9994",
        "tle_line2": "2 35840  73.9295 170.1667 0116122  74.2350 287.1572 14.37729303851981"
      },
      "geometry": {
        "type": "Point",
        "coordinates": [
          -173.34538065393832,
          49.85744623268159
        ]
      }
    },
    {
      "type": "Feature",
      "properties": {
        "norad_id": 35883,
        "name": "COSMOS 2251 DEB",
        "group": "cosmos-2251-debris",
        "lat": -21.316038932043128,
        "lon": -94.93861378887075,
        "alt_km": 669.3190864490552,
        "timestamp": "2025-12-08T03:50:07.392866+00:00",
        "meta_object_name": "COSMOS 2251 DEB",
        "meta_object_id": "1993-036ATW",
        "meta_epoch": "2025-12-07T01:15:22.133664",
        "meta_mean_motion": 14.5058041,
        "meta_eccentricity": 0.00842101,
        "meta_inclination": 74.0243,
        "meta_ra_of_asc_node": 80.7257,
        "meta_arg_of_pericenter": 211.6096,
        "meta_mean_anomaly": 329.6614,
        "meta_ephemeris_type": 0,
        "meta_classification_type": "U",
        "meta_norad_cat_id": 35883,
        "meta_element_set_no": 999,
        "meta_rev_at_epoch": 62303,
        "meta_bstar": 0.00065177462,
        "meta_mean_motion_dot": 2.646e-05,
        "meta_mean_motion_ddot": 0,
        "tle_line1": "1 35883U 93036ATW 25341.05233951  .00002646  00000+0  65177-3 0  9997",
        "tle_line2": "2 35883  74.0243  80.7257 0084210 211.6096 329.6614 14.50580410623031"
      },
      "geometry": {
        "type": "Point",
        "coordinates": [
          -94.93861378887075,
          -21.316038932043128
        ]
      }
    },
    {
      "type": "Feature",
      "properties": {
        "norad_id": 35884,
        "name": "COSMOS 2251 DEB",
        "group": "cosmos-2251-debris",
        "lat": -25.424535687071938,
        "lon": -23.542972247706988,
        "alt_km": 884.6140405681208,
        "timestamp": "2025-12-08T03:50:07.392876+00:00",
        "meta_object_name": "COSMOS 2251 DEB",
        "meta_object_id": "1993-036ATX",
        "meta_epoch": "2025-12-06T18:16:42.391200",
        "meta_mean_motion": 14.25605565,
        "meta_eccentricity": 0.01089766,
        "meta_inclination": 73.9907,
        "meta_ra_of_asc_node": 346.8314,
        "meta_arg_of_pericenter": 135.364,
        "meta_mean_anomaly": 225.6347,
        "meta_ephemeris_type": 0,
        "meta_classification_type": "U",
        "meta_norad_cat_id": 35884,
        "meta_element_set_no": 999,
        "meta_rev_at_epoch": 22272,
        "meta_bstar": 0.0019229553,
        "meta_mean_motion_dot": 4.824e-05,
        "meta_mean_motion_ddot": 0,
        "tle_line1": "1 35884U 93036ATX 25340.76160175  .00004824  00000+0  19230-2 0  9990",
        "tle_line2": "2 35884  73.9907 346.8314 0108976 135.3640 225.6347 14.25605565222720"
      },
      "geometry": {
        "type": "Point",
        "coordinates": [
          -23.542972247706988,
          -25.424535687071938
        ]
      }
    }
  ]
}